SKYSAT-C1               
1 41601U 16040C   26204.03334042  .00009412  00000+0  26337-3 0  9995
2 41601  96.9557 233.8198 0000977 185.7159 174.4075 15.36845504563371
LAPAN-A3                
1 41603U 16040E   26204.28254914  .00003438  00000+0  10905-3 0  9999
2 41603  97.1511 199.2510 0008450 240.0882 119.9523 15.33314779560349
GAOFEN-3                
1 41727U 16049A   26204.29925287  .00000088  00000+0  39965-4 0  9990
2 41727  98.4028 211.5413 0001783  82.8238 277.3154 14.42219342523855
SKYSAT-C4               
1 41771U 16058B   26204.05312085  .00019147  00000+0  34723-3 0  9991
2 41771  96.9177 224.3470 0003562 108.3009 251.8631 15.49634823551024
SKYSAT-C5               
1 41772U 16058C   26204.10558117  .00007252  00000+0  22409-3 0  9998
2 41772  97.0456 243.1260 0003402 142.5858 217.5623 15.33797689549253
SKYSAT-C2               
1 41773U 16058D   26204.32921844  .00012159  00000+0  27930-3 0  9990
2 41773  97.0165 225.0801 0000661 273.3925  86.7248 15.42821230550625
SKYSAT-C3               
1 41774U 16058E   26204.02665170  .00025552  00000+0  39629-3 0  9994
2 41774  96.9002 233.5269 0002888 123.8234 236.3296 15.53977740551673
ALSAT-1B                
1 41785U 16059C   26204.32842589  .00000494  00000+0  85503-4 0  9992
2 41785  97.7766 211.5336 0010766 107.0666 253.1723 14.72299220525896
PATHFINDER 1            
1 41787U 16059E   26204.26977547  .00000568  00000+0  10719-3 0  9998
2 41787  97.8182 201.9202 0029969  91.2135 269.2504 14.67700551525002
SCATSAT 1               
1 41790U 16059H   26204.19174554  .00001177  00000+0  16042-3 0  9993
2 41790  98.1171 268.3263 0055677 131.2166 229.3864 14.79602572106914
GOKTURK 1A              
1 41875U 16073A   26204.29434358  .00000543  00000+0  11563-3 0  9994
2 41875  98.1198  98.3946 0001442  81.1820 278.9545 14.62797974514100
RESOURCESAT-2A          
1 41877U 16074A   26204.24736131  .00000208  00000+0  11517-3 0  9993
2 41877  98.7512 277.4543 0001859   9.2418 350.8793 14.21610774499426
CARTOSAT-2D             
1 41948U 17008A   26204.31738991  .00003464  00000+0  16715-3 0  9996
2 41948  97.4085 262.9436 0006509 117.6697 242.5199 15.19327348523061
SENTINEL-2B             
1 42063U 17013A   26204.29143367 -.00000109  00000+0 -25046-4 0  9998
2 42063  98.5676 278.5537 0001232  93.8929 266.2395 14.30816245489809
CARTOSAT-2E             
1 42767U 17036C   26204.26945186  .00003792  00000+0  18284-3 0  9994
2 42767  97.4255 263.4724 0004245 160.8288 199.3107 15.19298695503627
FORMOSAT-5              
1 42920U 17049A   26204.25849148  .00000063  00000+0  27005-4 0  9999
2 42920  98.2240 278.7646 0010850 338.2719  21.8015 14.50894220471904
SENTINEL-5P             
1 42969U 17064A   26204.29064142  .00000034  00000+0  37047-4 0  9991
2 42969  98.7929 146.1668 0001207  92.3833 267.7481 14.19524294454689
SKYSAT-C11              
1 42987U 17068A   26203.68512260  .00031225  00000+0  39233-3 0  9990
2 42987  97.4384 354.1178 0001506 150.3189 209.8153 15.59645696488773
SKYSAT-C10              
1 42988U 17068B   26203.82158753  .00011170  00000+0  32886-3 0  9994
2 42988  97.4541 341.0397 0001544 109.9336 250.2073 15.35228657487827
SKYSAT-C9               
1 42989U 17068C   26204.31978232  .00012642  00000+0  29466-3 0  9997
2 42989  97.4460 342.8295 0007944  17.0072 343.1440 15.42362279488323
SKYSAT-C8               
1 42990U 17068D   26204.32382803  .00010428  00000+0  28469-3 0  9995
2 42990  97.4557 341.4865 0001312 107.4214 252.7174 15.37611068487869
SKYSAT-C7               
1 42991U 17068E   26204.31857239  .00010274  00000+0  28091-3 0  9995
2 42991  97.4568 342.4736 0004958 351.7605   8.3557 15.37559306487920
SKYSAT-C6               
1 42992U 17068F   26204.08490242  .00010024  00000+0  30439-3 0  9999
2 42992  97.4607 342.0542 0004812  69.2184 290.9574 15.34270039487825
CARTOSAT-2F             
1 43111U 18004A   26204.30241141  .00004620  00000+0  22262-3 0  9991
2 43111  97.4769 263.5792 0002828 121.8311 238.3199 15.19219282472812
GAOFEN-1 02             
1 43259U 18031A   26204.28472602  .00001010  00000+0  15254-3 0  9992
2 43259  98.0507 266.7072 0001607 232.7072 127.3991 14.76480949448023
GAOFEN-1 03             
1 43260U 18031B   26204.33064446  .00000632  00000+0  98207-4 0  9992
2 43260  98.0498 266.6071 0001758 348.9236  11.1935 14.76470880448022
GAOFEN-1 04             
1 43262U 18031D   26204.30644229  .00000277  00000+0  47246-4 0  9996
2 43262  98.0508 266.7782 0000792  59.9585 300.1703 14.76444771448012
SENTINEL-3B             
1 43437U 18039A   26204.16632218  .00000076  00000+0  49282-4 0  9996
2 43437  98.6229 271.1788 0001305 118.4343 241.6969 14.26738051429252
GAOFEN-5 01             
1 43461U 18043A   26203.88962113  .00000254  00000+0  62329-4 0  9991
2 43461  98.4598 176.2313 0001621  14.7402 345.3845 14.60627011436906
GAOFEN-6                
1 43484U 18048A   26204.32932770  .00000374  00000+0  61280-4 0  9995
2 43484  98.0950 267.0500 0011903  58.9417 301.2959 14.76389363438727
